KUIPER-00053            
1 64513U 25134P   25354.02336990  .00002629  00000+0  37360-3 0  9995
2 64513  51.8996 215.3722 0001390  91.9965 268.1157 14.79946303 28414
KUIPER-00054            
1 64514U 25134Q   25354.77112723  .00001777  00000+0  26193-3 0  9999
2 64514  51.8972 207.0499 0005916  55.3681 304.7838 14.79964114 28597
KUIPER-00055            
1 64515U 25134R   25354.83373146  .00007259  00000+0  36690-3 0  9999
2 64515  51.8898 190.5263 0002350 209.5696 150.5150 15.18051012 28837
KUIPER-00056            
1 64516U 25134S   25354.62939481  .00002130  00000+0  30834-3 0  9994
2 64516  51.9013 213.7281 0003101  64.5272 295.6011 14.79934132 28498
KUIPER-00057            
1 64517U 25134T   25353.87850999  .00001941  00000+0  28383-3 0  9992
2 64517  51.9007 224.5346 0009505  17.8122 342.3171 14.79917204 28277
KUIPER-00058            
1 64518U 25134U   25354.62838816  .00002029  00000+0  29523-3 0  9996
2 64518  51.9000 215.1380 0004892  68.5516 291.5968 14.79933614 28473
KUIPER-00059            
1 64519U 25134V   25353.35066416 -.00017406  00000+0 -22681-2 0  9999
2 64519  51.8998 215.8431 0003526 185.1106 174.9821 14.79779176 28357
KUIPER-00060            
1 64520U 25134W   25354.02440314  .00002320  00000+0  33304-3 0  9991
2 64520  51.9012 213.9046 0002835 101.3895 258.7386 14.79961085 28422
